#full_name,a,e,i,om,w,q,ad,per_y,data_arc,condition_code,n_obs_used,n_del_obs_used,n_dop_obs_used,H,rot_per
"       (2001 XX4)",1.006563714590326,.5567732883348679,.8482267502368399,127.0634689099521,186.8383263445597,.4461359252993106,1.566991503881341,1.00988078297827,388,1,102,,,22.1,
"       (2001 XW10)",2.101590400490033,.7685864267889035,4.65357087354641,340.3693985626679,353.8269445883653,.4863365440035379,3.716844256976529,3.04670437582065,1116,1,42,,,19.4,
"       (2001 XH16)",2.114057001737203,.6294153163143491,2.649869044389383,79.31354839931957,291.0917995514902,.7834371452822169,3.44467685819219,3.07385404320554,11,9,12,,,24.8,
"       (2001 XP31)",1.146434162896828,.3852765830198376,6.132894055771029,241.264964853882,81.70493563954933,.70473992595873,1.588128399834926,1.22752933954789,5899,2,39,,,22.2,
"       (2001 XQ31)",2.857338842445424,.5774488949999873,20.14397988419747,84.49682400739128,335.3537536946644,1.207371685234771,4.507305999656078,4.83004102739412,111,5,75,,,19.2,
"       (2001 XO88)",2.500926653514462,.6042563977929865,7.167102534433591,85.30805583661393,317.3719484356859,.9897257227173449,4.01212758431158,3.95511972794064,26,7,30,,,22.0,
"       (2001 XX103)",2.04946828968793,.6648250542430877,6.201738595513584,80.00409955548686,84.64597673824176,.6869304228266638,3.412006156549197,2.93406686552147,5,8,31,,,23.6,
"       (2001 XG105)",1.502954511723718,.334491987888906,21.96380115161687,83.33289752051253,42.83774094600928,1.000228269390652,2.005680754056785,1.84258256301527,63,6,59,,,21.4,
"       (2001 XK105)",2.129817350067305,.5014843789054456,7.636984052625956,79.88364363071403,7.138211643140674,1.061747219086761,3.197887481047851,3.1082915169005,73,5,28,,,23.8,
"       (2001 YA1)",2.162883308391756,.472129516464769,27.99231422543488,255.2728033932024,168.00470925,1.141722257831036,3.184044358952475,3.18095727459275,62,6,22,,,20.8,
"       (2001 YB1)",1.664151600006248,.2902354183276968,26.28328268868738,262.5644912963652,181.3826012581292,1.181155864217728,2.147147335794767,2.14682939230292,5483,1,37,,,21.7,
"       (2001 YC1)",1.194794451664265,.2734857350374121,20.28191416602181,263.9014622162496,252.771718939526,.8680352128322417,1.521553690496288,1.30601449795405,2,9,13,,,24.133,
"       (2001 YD1)",1.488275621233632,.4645463611123201,7.035611686036747,85.94447467793333,285.2009606757691,.7969025970573703,2.179648645409893,1.81565468248736,7,8,33,,,24.4,
"       (2001 YE1)",1.91241033463845,.5011085625712166,4.458359795058921,65.846393055966,97.62814518725062,.954085140801437,2.870735528475463,2.64472076557249,58,6,120,,,20.8,
"       (2001 YM2)",2.382509981937839,.5708606280847418,4.65874609048403,93.05832448207782,292.9974154590436,1.022428837230637,3.74259112664504,3.67756447544553,4048,0,197,,,19.5,
"       (2001 YN2)",2.507280005309978,.7152837530564765,1.628729702931391,82.60908716479733,289.8775991141003,.7138633531483944,4.300696657471561,3.97020066955626,21,8,36,,,25.4,
"       (2001 YO2)",1.294112667694038,.6882752344705655,48.01586052268148,266.2201806587721,311.4876761102832,.4034069679055951,2.184818367482482,1.4721983778911,24,8,25,,,21.0,
"       (2001 YP3)",2.495458300193564,.6210460994289209,7.929540306318009,101.9316658170137,36.30301668885775,.945663656570826,4.045252943816302,3.94215483439501,1455,0,135,1,1,22.0,
"       (2001 YR3)",1.692408405095132,.3770536397401069,23.45562425046225,90.0948906115472,23.26503874943182,1.054279656027263,2.330537154163001,2.20173964529955,4,9,19,,,22.679,
"       (2001 YT3)",2.370321953881819,.4651960232128965,2.768763124845806,310.6229370746497,171.0795657963874,1.267657607201774,3.472986300561865,3.64938103430164,8119,0,122,,,20.8,
"       (2001 YU3)",1.943475268957074,.4639876903607664,8.542600985614783,82.44625046664962,83.0483017431861,1.041726667640412,2.845223870273736,2.70942248156979,2900,1,57,,,20.1,
"       (2001 YV3)",1.94694653896274,.7187397763138361,5.197387775570913,107.26911921695,244.3547568385291,.5475986190536629,3.346294458871818,2.71668473148692,880,1,77,,,20.2,
"       (2001 YM4)",1.721159046196819,.3890293992241594,26.21690347702983,290.6752835438103,96.31618213761496,1.051577576485643,2.390740515907995,2.25808199535217,6425,0,79,,,19.9,
"       (2001 YB5)",2.339280519861117,.8646250677921918,5.545983144332161,108.3869378022357,115.2740481152891,.316679941791245,4.36188109793099,3.57792850956395,11,7,399,,,20.9,2.5
"       (2001 YX11)",1.751596241397992,.3895384176508497,5.473923361632454,216.2703921275137,301.8122048481328,1.069282213160642,2.433910269635342,2.31824434558601,2549,0,104,,,20.0,
"       (2002 AV)",2.469949230981186,.6589391950356605,2.842430733305548,123.7995505174767,285.9125579023081,.8424028729394947,4.097495589022877,3.88186334015927,1283,0,216,2,3,20.9,
"       (2002 AY1)",.7789825459267807,.4374269869359309,29.89261266282898,287.8605395355911,323.8403676380188,.4382345579863487,1.119730533867213,0.687542885658569,4730,0,123,5,3,20.8,
"       (2002 AZ1)",2.120314913532323,.6657207686789127,8.133786535512563,113.7136763714617,97.07596506986728,.7087772394542227,3.531852587610424,3.0875127116118,35,7,64,,,22.0,
"       (2002 AA2)",2.257044134115436,.5263228196121564,35.06747633680514,107.2047285782998,7.431538230564795,1.069110301458722,3.444977966772151,3.39092574205939,6273,0,123,,,20.3,
"       (2002 AB2)",.8407307634757704,.3861983720320697,13.19733458319168,103.0815296090737,149.5595191852191,.5160419113041488,1.165419615647392,0.770892128147836,11,7,42,,,23.3,
"       (2002 AQ2)",2.660204286920361,.6076235619593642,11.65555509570274,325.7927010258599,159.5122711386981,1.043801482562241,4.27660709127848,4.33891043854835,4856,0,170,,,18.6,
"       (2002 AY3)",1.669987678004182,.3500611153131774,20.49823973703705,294.3826256656253,179.1257378447048,1.085389928882775,2.25458542712559,2.15813248695639,5352,0,103,,,20.7,
"       (2002 AR4)",3.004857535263624,.6201158718937571,7.739790500402303,60.83655976137434,92.69839593937242,1.141497684867096,4.868217385660151,5.20887615279163,171,5,32,,,20.0,
"       (2002 AS4)",1.267331819546509,.8014395030920578,27.03895020931382,285.5588819574012,42.55829811982166,.2516420358364013,2.283021603256616,1.42673629951623,5,9,19,,,21.65,
"       (2002 AT4)",1.866973044029299,.4462142030769796,1.499739831610968,323.4750430402451,203.0600943661621,1.033903155021562,2.700042933037035,2.55102828246278,1805,0,201,,,21.2,
"       (2002 AC9)",1.70418966077363,.5604421680302401,2.277806468557784,2.505215670212562,28.55906497007886,.7490899125549375,2.659289408992323,2.22476985571852,3132,0,51,,,21.0,
"       (2002 AO11)",.9171706704697903,.1622063098837742,13.06056744317056,295.0362762929806,305.9083591511989,.7683998004792585,1.065941540460322,0.878382024608864,5114,2,19,,,22.7,
"       (2002 AK14)",1.016522276433485,.1057180741203514,18.01787512524696,117.3751749305271,222.3368599715626,.9090574990685013,1.123987053798468,1.02490486068342,998,2,50,,,21.5,
"       (2002 AA29)",.9925399596376541,.01300643143468378,10.74808280440534,106.3659479521443,101.8970289909142,.9796305567064431,1.005449362568865,0.988849510693899,736,0,62,,,24.1,0.55
"       (2002 AD29)",1.756454468732469,.4740441001113846,31.69086573321963,112.8122883150142,273.0838562538829,.9238175907155658,2.589091346749373,2.32789585399257,11,9,24,,,21.0,
"       (2002 AE29)",2.368337940483936,.6097957970105109,3.567820620770682,118.8694749774393,305.4439065160316,.9241354184763022,3.812540462491569,3.64480007081047,5,9,21,,,24.6,
"       (2002 AF29)",3.262415868159585,.6106882196852509,7.984502371990963,216.6561331072002,283.1069242160551,1.270096929760296,5.254734806558875,5.89273869675251,2357,0,137,,,19.2,
"       (2002 AH29)",2.409361665904099,.5611154159184628,11.40305676598293,117.9356714478849,35.84023232747191,1.05743169264232,3.761291639165877,3.73991039154148,111,5,137,,,21.5,
"       (2002 AL31)",1.176713587218932,.2475357434269611,7.611677879076689,297.6899813399162,247.1044353202394,.8854349146060877,1.467992259831777,1.27648099901603,8,7,57,,,24.5,
"       (2002 AJ69)",1.179326155701614,.4046713468541918,25.80388995681122,116.1306391481786,226.4663760021246,.7020866518934655,1.656565659509762,1.28073446957006,4,9,16,,,20.951,
"       (2002 AN129)",1.818731900284006,.5250765464955554,.2884704655329451,93.98263129197647,74.42018253249788,.8637584350815812,2.77370536548643,2.45279486753561,1,9,9,,,26.2,
"       (2002 AR129)",2.836301185395864,.580955587532252,19.53469582099062,4.211438870948596,157.8064324789513,1.188536163815787,4.484066206975942,4.77679630212322,5048,0,64,,,17.7,
"       (2002 BG)",1.318580615111308,.1641543935762608,23.05310345817098,115.4773602618926,33.61274826947646,1.102129813856298,1.535031416366318,1.51414766929754,2213,1,43,,,20.5,
"       (2002 BM)",2.549157465442522,.6082566080652131,11.88533519850619,296.9685533395943,169.1413932389903,.9986155920883379,4.099699338796706,4.07008235831544,2,9,23,,,24.1,
"       (2002 BA1)",2.06226018073875,.4560902312671167,2.662397671012336,118.8436769177943,58.10407134662043,1.121683457972648,3.002836903504853,2.96157944142519,1220,0,154,,,21.5,
"       (2002 BJ2)",2.048716288781139,.6543431680887353,26.1116293986526,16.51471880600976,60.93586938305862,.7081527818650923,3.389279795697186,2.93245214046485,7752,1,73,,,17.0,
"       (2002 BM5)",1.544526655339796,.2989719025379622,14.66322787192277,308.9248999146925,151.00090858649,1.082756582672262,2.00629672800733,1.91955833092279,47,6,30,,,22.3,
"       (2002 BF25)",1.073312188532075,.2217966228583412,6.275069714062544,305.9137469366661,78.0450394031521,.8352551698429653,1.311369207221184,1.11198081420075,3658,0,103,2,0,22.2,
"       (2002 BG25)",1.231951574136136,.2339857401342952,48.82031061451721,316.5498180855419,239.2518371212175,.9436924732522823,1.52021067501999,1.36740970359564,5500,0,118,1,1,20.9,
